STARLINK-30279          
1 57885U 23144X   26068.00004630  .00057324  00000+0  21326-2 0  9998
2 57885  43.0000 288.7150 0001487 259.3260 199.1729 15.26701549  5788
KUIPER-00204            
1 67145U 25301N   26068.39760395  .00020516  00000+0  79568-3 0  9999
2 67145  51.8870  71.6415 0003071 354.8934   5.2016 15.26088400 13737
